QIANFAN-17              
1 60395U 24140S   26197.77614948  .00000103  00000+0  14101-3 0  9998
2 60395  88.9744 277.0430 0012787 305.7675  54.2286 13.51016495 97307
QIANFAN-18              
1 60396U 24140T   26197.82961507  .00000098  00000+0  13318-3 0  9993
2 60396  88.9738 276.5567 0011911 285.1571  74.8263 13.51015958 96709
QIANFAN-19              
1 61552U 24185A   26197.85450262  .00000227  00000+0  11087-3 0  9996
2 61552  88.9812  53.1787 0006217 350.4678   9.6390 14.14494833100219
QIANFAN-20              
1 61553U 24185B   26197.79970015  .00000219  00000+0  11861-3 0  9994
2 61553  88.9808  53.7230 0006723  34.3120 325.8497 14.09036586 99912
QIANFAN-21              
1 61554U 24185C   26197.87725708  .00000290  00000+0  12256-3 0  9999
2 61554  88.9729  51.6667 0011742  30.2490 329.9377 14.22882264100707
QIANFAN-22              
1 61555U 24185D   26197.88485463  .00000135  00000+0  10543-3 0  9997
2 61555  88.9793  55.5672 0008418  62.2328 297.9696 13.86407930 98884
QIANFAN-23              
1 61556U 24185E   26197.80585573  .00000215  00000+0  10062-3 0  9998
2 61556  88.9806  52.8924 0007176 358.6566   1.4601 14.16518957100330
QIANFAN-24              
1 61557U 24185F   26197.83725811  .00000305  00000+0  12645-3 0  9992
2 61557  88.9787  51.9425 0007980 326.1053  33.9628 14.24099369100776
QIANFAN-25              
1 61558U 24185G   26197.85942830  .00000190  00000+0  10730-3 0  9992
2 61558  88.9802  53.7332 0012630  29.3237 330.8652 14.06095985 99870
QIANFAN-26              
1 61559U 24185H   26197.86546984  .00000147  00000+0  13326-3 0  9990
2 61559  88.9800  56.4249 0007896  79.9387 280.2670 13.77924268 98432
QIANFAN-27              
1 61560U 24185J   26197.86452068  .00000205  00000+0  77537-4 0  9991
2 61560  88.9799  51.6104 0005465 314.5264  45.5483 14.27557350100999
QIANFAN-28              
1 61561U 24185K   26197.86748451  .00000324  00000+0  12396-3 0  9999
2 61561  88.9816  51.6234 0005275 312.3486  47.7262 14.28419810101028
QIANFAN-29              
1 61562U 24185L   26197.77350580  .00000095  00000+0  12878-3 0  9992
2 61562  88.9773  58.9826 0011005 137.1091 223.0921 13.51078975 96966
QIANFAN-30              
1 61563U 24185M   26197.83795811  .00000007  00000+0 -74632-5 0  9992
2 61563  88.9793  58.5839 0008987 122.9100 237.2916 13.50061398 97228
QIANFAN-31              
1 61564U 24185N   26197.78943551  .00000110  00000+0  13579-3 0  9998
2 61564  88.9777  58.0479 0008794 111.1178 249.0918 13.58047184 97483
QIANFAN-32              
1 61565U 24185P   26197.83596683  .00000108  00000+0  14884-3 0  9992
2 61565  88.9834  58.7827 0010257 151.1371 209.0350 13.50792791 97218
