{"fetched_at":"2026-07-17T06:37:54.961Z","source":"https://celestrak.org/NORAD/elements/gp.php?GROUP=qianfan&FORMAT=JSON","constellation":"qianfan","records":[{"OBJECT_NAME":"QIANFAN-17","OBJECT_ID":"2024-140S","EPOCH":"2026-07-16T18:37:39.315072","CLASSIFICATION_TYPE":"U","MEAN_MOTION":13.51016495,"ECCENTRICITY":0.0012787,"INCLINATION":88.9744,"RA_OF_ASC_NODE":277.043,"ARG_OF_PERICENTER":305.7675,"MEAN_ANOMALY":54.2286,"EPHEMERIS_TYPE":0,"NORAD_CAT_ID":60395,"ELEMENT_SET_NO":999,"REV_AT_EPOCH":9730,"BSTAR":0.00014101,"MEAN_MOTION_DOT":0.00000103,"MEAN_MOTION_DDOT":0},{"OBJECT_NAME":"QIANFAN-18","OBJECT_ID":"2024-140T","EPOCH":"2026-07-16T19:54:38.742048","CLASSIFICATION_TYPE":"U","MEAN_MOTION":13.51015958,"ECCENTRICITY":0.0011911,"INCLINATION":88.9738,"RA_OF_ASC_NODE":276.5567,"ARG_OF_PERICENTER":285.1571,"MEAN_ANOMALY":74.8263,"EPHEMERIS_TYPE":0,"NORAD_CAT_ID":60396,"ELEMENT_SET_NO":999,"REV_AT_EPOCH":9670,"BSTAR":0.00013318,"MEAN_MOTION_DOT":9.8e-7,"MEAN_MOTION_DDOT":0},{"OBJECT_NAME":"QIANFAN-19","OBJECT_ID":"2024-185A","EPOCH":"2026-07-16T20:30:29.026368","CLASSIFICATION_TYPE":"U","MEAN_MOTION":14.14494833,"ECCENTRICITY":0.0006217,"INCLINATION":88.9812,"RA_OF_ASC_NODE":53.1787,"ARG_OF_PERICENTER":350.4678,"MEAN_ANOMALY":9.639,"EPHEMERIS_TYPE":0,"NORAD_CAT_ID":61552,"ELEMENT_SET_NO":999,"REV_AT_EPOCH":10021,"BSTAR":0.00011087,"MEAN_MOTION_DOT":0.00000227,"MEAN_MOTION_DDOT":0},{"OBJECT_NAME":"QIANFAN-20","OBJECT_ID":"2024-185B","EPOCH":"2026-07-16T19:11:34.092960","CLASSIFICATION_TYPE":"U","MEAN_MOTION":14.09036586,"ECCENTRICITY":0.0006723,"INCLINATION":88.9808,"RA_OF_ASC_NODE":53.723,"ARG_OF_PERICENTER":34.312,"MEAN_ANOMALY":325.8497,"EPHEMERIS_TYPE":0,"NORAD_CAT_ID":61553,"ELEMENT_SET_NO":999,"REV_AT_EPOCH":9991,"BSTAR":0.00011861,"MEAN_MOTION_DOT":0.00000219,"MEAN_MOTION_DDOT":0},{"OBJECT_NAME":"QIANFAN-21","OBJECT_ID":"2024-185C","EPOCH":"2026-07-16T21:03:15.011712","CLASSIFICATION_TYPE":"U","MEAN_MOTION":14.22882264,"ECCENTRICITY":0.0011742,"INCLINATION":88.9729,"RA_OF_ASC_NODE":51.6667,"ARG_OF_PERICENTER":30.249,"MEAN_ANOMALY":329.9377,"EPHEMERIS_TYPE":0,"NORAD_CAT_ID":61554,"ELEMENT_SET_NO":999,"REV_AT_EPOCH":10070,"BSTAR":0.00012256,"MEAN_MOTION_DOT":0.0000029,"MEAN_MOTION_DDOT":0},{"OBJECT_NAME":"QIANFAN-22","OBJECT_ID":"2024-185D","EPOCH":"2026-07-16T21:14:11.440032","CLASSIFICATION_TYPE":"U","MEAN_MOTION":13.8640793,"ECCENTRICITY":0.0008418,"INCLINATION":88.9793,"RA_OF_ASC_NODE":55.5672,"ARG_OF_PERICENTER":62.2328,"MEAN_ANOMALY":297.9696,"EPHEMERIS_TYPE":0,"NORAD_CAT_ID":61555,"ELEMENT_SET_NO":999,"REV_AT_EPOCH":9888,"BSTAR":0.00010543,"MEAN_MOTION_DOT":0.00000135,"MEAN_MOTION_DDOT":0},{"OBJECT_NAME":"QIANFAN-23","OBJECT_ID":"2024-185E","EPOCH":"2026-07-16T19:20:25.935072","CLASSIFICATION_TYPE":"U","MEAN_MOTION":14.16518957,"ECCENTRICITY":0.0007176,"INCLINATION":88.9806,"RA_OF_ASC_NODE":52.8924,"ARG_OF_PERICENTER":358.6566,"MEAN_ANOMALY":1.4601,"EPHEMERIS_TYPE":0,"NORAD_CAT_ID":61556,"ELEMENT_SET_NO":999,"REV_AT_EPOCH":10033,"BSTAR":0.00010062,"MEAN_MOTION_DOT":0.00000215,"MEAN_MOTION_DDOT":0},{"OBJECT_NAME":"QIANFAN-24","OBJECT_ID":"2024-185F","EPOCH":"2026-07-16T20:05:39.100704","CLASSIFICATION_TYPE":"U","MEAN_MOTION":14.24099369,"ECCENTRICITY":0.000798,"INCLINATION":88.9787,"RA_OF_ASC_NODE":51.9425,"ARG_OF_PERICENTER":326.1053,"MEAN_ANOMALY":33.9628,"EPHEMERIS_TYPE":0,"NORAD_CAT_ID":61557,"ELEMENT_SET_NO":999,"REV_AT_EPOCH":10077,"BSTAR":0.00012645,"MEAN_MOTION_DOT":0.00000305,"MEAN_MOTION_DDOT":0},{"OBJECT_NAME":"QIANFAN-25","OBJECT_ID":"2024-185G","EPOCH":"2026-07-16T20:37:34.605120","CLASSIFICATION_TYPE":"U","MEAN_MOTION":14.06095985,"ECCENTRICITY":0.001263,"INCLINATION":88.9802,"RA_OF_ASC_NODE":53.7332,"ARG_OF_PERICENTER":29.3237,"MEAN_ANOMALY":330.8652,"EPHEMERIS_TYPE":0,"NORAD_CAT_ID":61558,"ELEMENT_SET_NO":999,"REV_AT_EPOCH":9987,"BSTAR":0.0001073,"MEAN_MOTION_DOT":0.0000019,"MEAN_MOTION_DDOT":0},{"OBJECT_NAME":"QIANFAN-26","OBJECT_ID":"2024-185H","EPOCH":"2026-07-16T20:46:16.594176","CLASSIFICATION_TYPE":"U","MEAN_MOTION":13.77924268,"ECCENTRICITY":0.0007896,"INCLINATION":88.98,"RA_OF_ASC_NODE":56.4249,"ARG_OF_PERICENTER":79.9387,"MEAN_ANOMALY":280.267,"EPHEMERIS_TYPE":0,"NORAD_CAT_ID":61559,"ELEMENT_SET_NO":999,"REV_AT_EPOCH":9843,"BSTAR":0.00013326,"MEAN_MOTION_DOT":0.00000147,"MEAN_MOTION_DDOT":0},{"OBJECT_NAME":"QIANFAN-27","OBJECT_ID":"2024-185J","EPOCH":"2026-07-16T20:44:54.586752","CLASSIFICATION_TYPE":"U","MEAN_MOTION":14.2755735,"ECCENTRICITY":0.0005465,"INCLINATION":88.9799,"RA_OF_ASC_NODE":51.6104,"ARG_OF_PERICENTER":314.5264,"MEAN_ANOMALY":45.5483,"EPHEMERIS_TYPE":0,"NORAD_CAT_ID":61560,"ELEMENT_SET_NO":999,"REV_AT_EPOCH":10099,"BSTAR":0.000077537,"MEAN_MOTION_DOT":0.00000205,"MEAN_MOTION_DDOT":0},{"OBJECT_NAME":"QIANFAN-28","OBJECT_ID":"2024-185K","EPOCH":"2026-07-16T20:49:10.661664","CLASSIFICATION_TYPE":"U","MEAN_MOTION":14.2841981,"ECCENTRICITY":0.0005275,"INCLINATION":88.9816,"RA_OF_ASC_NODE":51.6234,"ARG_OF_PERICENTER":312.3486,"MEAN_ANOMALY":47.7262,"EPHEMERIS_TYPE":0,"NORAD_CAT_ID":61561,"ELEMENT_SET_NO":999,"REV_AT_EPOCH":10102,"BSTAR":0.00012396,"MEAN_MOTION_DOT":0.00000324,"MEAN_MOTION_DDOT":0},{"OBJECT_NAME":"QIANFAN-29","OBJECT_ID":"2024-185L","EPOCH":"2026-07-16T18:33:50.901120","CLASSIFICATION_TYPE":"U","MEAN_MOTION":13.51078975,"ECCENTRICITY":0.0011005,"INCLINATION":88.9773,"RA_OF_ASC_NODE":58.9826,"ARG_OF_PERICENTER":137.1091,"MEAN_ANOMALY":223.0921,"EPHEMERIS_TYPE":0,"NORAD_CAT_ID":61562,"ELEMENT_SET_NO":999,"REV_AT_EPOCH":9696,"BSTAR":0.00012878,"MEAN_MOTION_DOT":9.5e-7,"MEAN_MOTION_DDOT":0},{"OBJECT_NAME":"QIANFAN-30","OBJECT_ID":"2024-185M","EPOCH":"2026-07-16T20:06:39.580704","CLASSIFICATION_TYPE":"U","MEAN_MOTION":13.50061398,"ECCENTRICITY":0.0008987,"INCLINATION":88.9793,"RA_OF_ASC_NODE":58.5839,"ARG_OF_PERICENTER":122.91,"MEAN_ANOMALY":237.2916,"EPHEMERIS_TYPE":0,"NORAD_CAT_ID":61563,"ELEMENT_SET_NO":999,"REV_AT_EPOCH":9722,"BSTAR":-0.0000074632,"MEAN_MOTION_DOT":7e-8,"MEAN_MOTION_DDOT":0},{"OBJECT_NAME":"QIANFAN-31","OBJECT_ID":"2024-185N","EPOCH":"2026-07-16T18:56:47.228064","CLASSIFICATION_TYPE":"U","MEAN_MOTION":13.58047184,"ECCENTRICITY":0.0008794,"INCLINATION":88.9777,"RA_OF_ASC_NODE":58.0479,"ARG_OF_PERICENTER":111.1178,"MEAN_ANOMALY":249.0918,"EPHEMERIS_TYPE":0,"NORAD_CAT_ID":61564,"ELEMENT_SET_NO":999,"REV_AT_EPOCH":9748,"BSTAR":0.00013579,"MEAN_MOTION_DOT":0.0000011,"MEAN_MOTION_DDOT":0},{"OBJECT_NAME":"QIANFAN-32","OBJECT_ID":"2024-185P","EPOCH":"2026-07-16T20:03:47.534112","CLASSIFICATION_TYPE":"U","MEAN_MOTION":13.50792791,"ECCENTRICITY":0.0010257,"INCLINATION":88.9834,"RA_OF_ASC_NODE":58.7827,"ARG_OF_PERICENTER":151.1371,"MEAN_ANOMALY":209.035,"EPHEMERIS_TYPE":0,"NORAD_CAT_ID":61565,"ELEMENT_SET_NO":999,"REV_AT_EPOCH":9721,"BSTAR":0.00014884,"MEAN_MOTION_DOT":0.00000108,"MEAN_MOTION_DDOT":0}]}
